0 COSMOS 2362 (GLONASS)
1 25595U 98077C   13285.22318002 -.00000004  00000-0  00000+0 0  7750
2 25595 063.3332 224.2954 0001855 184.1033 295.5859 02.13103810115059
0 COSMOS 2362 (GLONASS)
1 25595U 98077C   13288.10517255 -.00000039  00000-0  00000+0 0  7760
2 25595 063.3326 224.1929 0001808 181.5316 349.1513 02.13103872115114
0 COSMOS 2362 (GLONASS)
1 25595U 98077C   13294.76252715 -.00000001  00000-0  00000+0 0  7776
2 25595 063.3311 223.9563 0001707 176.1980 061.8500 02.13103815115250
